<?xml version="1.0" encoding="UTF-8"?>
<kml xmlns="http://www.opengis.net/kml/2.2" xmlns:gx="http://www.google.com/kml/ext/2.2" xmlns:kml="http://www.opengis.net/kml/2.2" xmlns:atom="http://www.w3.org/2005/Atom">
<Document>
	<name>Plan2_espera.kml</name>
	<StyleMap id="m_ylw-pushpin">
		<Pair>
			<key>normal</key>
			<styleUrl>#s_ylw-pushpin</styleUrl>
		</Pair>
		<Pair>
			<key>highlight</key>
			<styleUrl>#s_ylw-pushpin_hl</styleUrl>
		</Pair>
	</StyleMap>
	<Style id="s_ylw-pushpin">
		<IconStyle>
			<scale>1.1</scale>
			<Icon>
				<href>http://maps.google.com/mapfiles/kml/pushpin/ylw-pushpin.png</href>
			</Icon>
			<hotSpot x="20" y="2" xunits="pixels" yunits="pixels"/>
		</IconStyle>
	</Style>
	<Style id="s_ylw-pushpin_hl">
		<IconStyle>
			<scale>1.3</scale>
			<Icon>
				<href>http://maps.google.com/mapfiles/kml/pushpin/ylw-pushpin.png</href>
			</Icon>
			<hotSpot x="20" y="2" xunits="pixels" yunits="pixels"/>
		</IconStyle>
	</Style>
	<Folder>
		<name>Plan2_espera</name>
		<open>1</open>
		<Placemark>
			<name>WP0</name>
			<open>1</open>
			<LookAt>
				<longitude>-4.081432835292934</longitude>
				<latitude>39.79399809803471</latitude>
				<altitude>0</altitude>
				<heading>-0.07373825130672246</heading>
				<tilt>29.43901459496065</tilt>
				<range>136.9548877540778</range>
				<gx:altitudeMode>relativeToSeaFloor</gx:altitudeMode>
			</LookAt>
			<styleUrl>#m_ylw-pushpin</styleUrl>
			<Point>
				<altitudeMode>relativeToGround</altitudeMode>
				<gx:drawOrder>1</gx:drawOrder>
				<coordinates>-4.081017062211834,39.79398676059062,20</coordinates>
			</Point>
		</Placemark>
		<Placemark>
			<name>WP2_1</name>
			<LookAt>
				<longitude>-4.081427729962356</longitude>
				<latitude>39.79405895494803</latitude>
				<altitude>0</altitude>
				<heading>-1.891156744534265e-06</heading>
				<tilt>29.67062472616406</tilt>
				<range>166.4006814356661</range>
				<gx:altitudeMode>relativeToSeaFloor</gx:altitudeMode>
			</LookAt>
			<styleUrl>#m_ylw-pushpin</styleUrl>
			<Point>
				<altitudeMode>relativeToGround</altitudeMode>
				<gx:drawOrder>1</gx:drawOrder>
				<coordinates>-4.081577593677274,39.7940490272347,20</coordinates>
			</Point>
		</Placemark>
		<atom:link rel="app" href="https://www.google.com/earth/about/versions/#earth-pro" title="Google Earth Pro 7.3.6.10441"></atom:link>
	</Folder>
</Document>
</kml>
