<?xml version="1.0" encoding="UTF-8"?>
<kml xmlns="http://www.opengis.net/kml/2.2" xmlns:gx="http://www.google.com/kml/ext/2.2" xmlns:kml="http://www.opengis.net/kml/2.2" xmlns:atom="http://www.w3.org/2005/Atom">
<Document>
	<name>Plan2.kml</name>
	<open>1</open>
	<atom:link rel="app" href="https://www.google.com/earth/about/versions/#earth-pro" title="Google Earth Pro 7.3.6.10441"></atom:link>
	<StyleMap id="m_ylw-pushpin">
		<Pair>
			<key>normal</key>
			<styleUrl>#s_ylw-pushpin1</styleUrl>
		</Pair>
		<Pair>
			<key>highlight</key>
			<styleUrl>#s_ylw-pushpin_hl0</styleUrl>
		</Pair>
	</StyleMap>
	<StyleMap id="m_ylw-pushpin0">
		<Pair>
			<key>normal</key>
			<styleUrl>#s_ylw-pushpin</styleUrl>
		</Pair>
		<Pair>
			<key>highlight</key>
			<styleUrl>#s_ylw-pushpin_hl</styleUrl>
		</Pair>
	</StyleMap>
	<StyleMap id="m_ylw-pushpin1">
		<Pair>
			<key>normal</key>
			<styleUrl>#s_ylw-pushpin0</styleUrl>
		</Pair>
		<Pair>
			<key>highlight</key>
			<styleUrl>#s_ylw-pushpin_hl1</styleUrl>
		</Pair>
	</StyleMap>
	<StyleMap id="m_ylw-pushpin00">
		<Pair>
			<key>normal</key>
			<styleUrl>#s_ylw-pushpin00</styleUrl>
		</Pair>
		<Pair>
			<key>highlight</key>
			<styleUrl>#s_ylw-pushpin_hl00</styleUrl>
		</Pair>
	</StyleMap>
	<Style id="s_ylw-pushpin">
		<IconStyle>
			<scale>1.1</scale>
			<Icon>
				<href>http://maps.google.com/mapfiles/kml/pushpin/ylw-pushpin.png</href>
			</Icon>
			<hotSpot x="20" y="2" xunits="pixels" yunits="pixels"/>
		</IconStyle>
	</Style>
	<Style id="s_ylw-pushpin0">
		<IconStyle>
			<scale>1.1</scale>
			<Icon>
				<href>http://maps.google.com/mapfiles/kml/pushpin/ylw-pushpin.png</href>
			</Icon>
			<hotSpot x="20" y="2" xunits="pixels" yunits="pixels"/>
		</IconStyle>
	</Style>
	<Style id="s_ylw-pushpin1">
		<IconStyle>
			<scale>1.1</scale>
			<Icon>
				<href>http://maps.google.com/mapfiles/kml/pushpin/ylw-pushpin.png</href>
			</Icon>
			<hotSpot x="20" y="2" xunits="pixels" yunits="pixels"/>
		</IconStyle>
	</Style>
	<Style id="s_ylw-pushpin00">
		<IconStyle>
			<scale>1.1</scale>
			<Icon>
				<href>http://maps.google.com/mapfiles/kml/pushpin/ylw-pushpin.png</href>
			</Icon>
			<hotSpot x="20" y="2" xunits="pixels" yunits="pixels"/>
		</IconStyle>
	</Style>
	<Style id="s_ylw-pushpin_hl">
		<IconStyle>
			<scale>1.3</scale>
			<Icon>
				<href>http://maps.google.com/mapfiles/kml/pushpin/ylw-pushpin.png</href>
			</Icon>
			<hotSpot x="20" y="2" xunits="pixels" yunits="pixels"/>
		</IconStyle>
	</Style>
	<Style id="s_ylw-pushpin_hl0">
		<IconStyle>
			<scale>1.3</scale>
			<Icon>
				<href>http://maps.google.com/mapfiles/kml/pushpin/ylw-pushpin.png</href>
			</Icon>
			<hotSpot x="20" y="2" xunits="pixels" yunits="pixels"/>
		</IconStyle>
	</Style>
	<Style id="s_ylw-pushpin_hl1">
		<IconStyle>
			<scale>1.3</scale>
			<Icon>
				<href>http://maps.google.com/mapfiles/kml/pushpin/ylw-pushpin.png</href>
			</Icon>
			<hotSpot x="20" y="2" xunits="pixels" yunits="pixels"/>
		</IconStyle>
	</Style>
	<Style id="s_ylw-pushpin_hl00">
		<IconStyle>
			<scale>1.3</scale>
			<Icon>
				<href>http://maps.google.com/mapfiles/kml/pushpin/ylw-pushpin.png</href>
			</Icon>
			<hotSpot x="20" y="2" xunits="pixels" yunits="pixels"/>
		</IconStyle>
	</Style>
	<Folder>
		<name>Plan2</name>
		<open>1</open>
		<Placemark>
			<name>WP0</name>
			<open>1</open>
			<LookAt>
				<longitude>-4.081432835292934</longitude>
				<latitude>39.79399809803471</latitude>
				<altitude>15</altitude>
				<heading>-0.07373825130672246</heading>
				<tilt>29.43901459496065</tilt>
				<range>136.9548877540778</range>
			</LookAt>
			<styleUrl>#m_ylw-pushpin0</styleUrl>
			<Point>
				<altitudeMode>relativeToGround</altitudeMode>
				<gx:drawOrder>1</gx:drawOrder>
				<coordinates>-4.081017062211834,39.79398676059062,20</coordinates>
			</Point>
		</Placemark>
		<Placemark>
			<name>WP2_1</name>
			<LookAt>
				<longitude>-4.081427729962356</longitude>
				<latitude>39.79405895494803</latitude>
				<altitude>0</altitude>
				<heading>-1.891156744534265e-06</heading>
				<tilt>29.67062472616406</tilt>
				<range>166.4006814356661</range>
				<gx:altitudeMode>relativeToSeaFloor</gx:altitudeMode>
			</LookAt>
			<styleUrl>#m_ylw-pushpin</styleUrl>
			<Point>
				<altitudeMode>relativeToGround</altitudeMode>
				<gx:drawOrder>1</gx:drawOrder>
				<coordinates>-4.081577593677274,39.7940490272347,20</coordinates>
			</Point>
		</Placemark>
		<Placemark>
			<name>WP2_2</name>
			<LookAt>
				<longitude>-4.081288501826685</longitude>
				<latitude>39.79419382846108</latitude>
				<altitude>0</altitude>
				<heading>1.104055465018728e-05</heading>
				<tilt>34.27049958787919</tilt>
				<range>284.3055383054427</range>
				<gx:altitudeMode>relativeToSeaFloor</gx:altitudeMode>
			</LookAt>
			<styleUrl>#m_ylw-pushpin00</styleUrl>
			<Point>
				<altitudeMode>relativeToGround</altitudeMode>
				<gx:drawOrder>1</gx:drawOrder>
				<coordinates>-4.081539189164723,39.79388248246199,20</coordinates>
			</Point>
		</Placemark>
		<Placemark>
			<name>WP2_3</name>
			<LookAt>
				<longitude>-4.081650920797779</longitude>
				<latitude>39.79413102042947</latitude>
				<altitude>0</altitude>
				<heading>-0.000175468466222087</heading>
				<tilt>31.1011763367463</tilt>
				<range>125.2751506465469</range>
				<gx:altitudeMode>relativeToSeaFloor</gx:altitudeMode>
			</LookAt>
			<styleUrl>#m_ylw-pushpin1</styleUrl>
			<Point>
				<altitudeMode>relativeToGround</altitudeMode>
				<gx:drawOrder>1</gx:drawOrder>
				<coordinates>-4.081923789568678,39.79387692315033,20</coordinates>
			</Point>
		</Placemark>
		<Placemark>
			<name>WP2_4</name>
			<LookAt>
				<longitude>-4.081650920797779</longitude>
				<latitude>39.79413102042947</latitude>
				<altitude>0</altitude>
				<heading>-0.000175468466222087</heading>
				<tilt>31.1011763367463</tilt>
				<range>125.2751506465469</range>
				<gx:altitudeMode>relativeToSeaFloor</gx:altitudeMode>
			</LookAt>
			<styleUrl>#m_ylw-pushpin1</styleUrl>
			<Point>
				<altitudeMode>relativeToGround</altitudeMode>
				<gx:drawOrder>1</gx:drawOrder>
				<coordinates>-4.081981052081499,39.79405613008267,20</coordinates>
			</Point>
		</Placemark>
		<Placemark>
			<name>WP2_5</name>
			<LookAt>
				<longitude>-4.081427729962356</longitude>
				<latitude>39.79405895494803</latitude>
				<altitude>0</altitude>
				<heading>-1.891156744534265e-06</heading>
				<tilt>29.67062472616406</tilt>
				<range>166.4006814356661</range>
				<gx:altitudeMode>relativeToSeaFloor</gx:altitudeMode>
			</LookAt>
			<styleUrl>#m_ylw-pushpin</styleUrl>
			<Point>
				<altitudeMode>relativeToGround</altitudeMode>
				<gx:drawOrder>1</gx:drawOrder>
				<coordinates>-4.081577593677274,39.7940490272347,20</coordinates>
			</Point>
		</Placemark>
		<Placemark>
			<name>WP5</name>
			<LookAt>
				<longitude>-4.081432835292934</longitude>
				<latitude>39.79399809803471</latitude>
				<altitude>15</altitude>
				<heading>-0.07373825130672246</heading>
				<tilt>29.43901459496065</tilt>
				<range>136.9548877540778</range>
			</LookAt>
			<styleUrl>#m_ylw-pushpin0</styleUrl>
			<Point>
				<altitudeMode>relativeToGround</altitudeMode>
				<gx:drawOrder>1</gx:drawOrder>
				<coordinates>-4.081017062211834,39.79398676059062,20</coordinates>
			</Point>
		</Placemark>
	</Folder>
</Document>
</kml>
